SBIRS GEO-6 (USA 336)   
1 53355U 22092A   23185.52869578  .00000125  00000+0  00000+0 0  9991
2 53355   5.9066 311.1032 0008195 152.8225 223.6870  1.00271612  3414
EUTELSAT KONNECT VHTS   
1 53765U 22110A   23193.81557913  .00000016  00000+0  00000+0 0  9994
2 53765   0.0506  93.0369 0003583   7.7866 125.8927  1.00264598  3059
CHINASAT 1E (ZX 1E)     
1 53813U 22112A   23193.76646531 -.00000149  00000+0  00000+0 0  9997
2 53813   0.7486 277.4793 0002556 193.1865 177.0653  1.00272455  3117
SES-20                  
1 53960U 22123A   23193.60460230 -.00000101  00000+0  00000+0 0  9993
2 53960   0.0334 147.4208 0001897 302.8441 314.5182  1.00270465  2807
SES-21                  
1 53961U 22123B   23193.61899213  .00000069  00000+0  00000+0 0  9994
2 53961   0.0284  31.2644 0001110  84.3899 266.5136  1.00271738  2813
GALAXY 33 (G-33)        
1 54026U 22128A   23193.20704291  .00000078  00000+0  00000+0 0  9998
2 54026   0.0136  27.8022 0001693  87.5318 116.0409  1.00273286  3004
GALAXY 34 (G-34)        
1 54027U 22128B   23193.16396872  .00000059  00000+0  00000+0 0  9995
2 54027   0.0185  56.5772 0001641  48.5118 114.7257  1.00270142  3035
ANGOSAT 2               
1 54033U 22131A   23193.30049455  .00000135  00000+0  00000+0 0  9999
2 54033   0.0290 132.2761 0000550 154.6570 134.1546  1.00272145  2747
EUTELSAT HOTBIRD 13F    
1 54048U 22134A   23193.37202324  .00000007  00000+0  00000+0 0  9999
2 54048   0.0709 292.6496 0001374 327.2273 165.4429  1.00272172  2711
EUTELSAT HOTBIRD 13G    
1 54225U 22146A   23193.73529906  .00000087  00000+0  00000+0 0  9995
2 54225   0.0629 250.9247 0003107 309.7174   7.3996  1.00270733  2489
CHINASAT 19 (ZX 19)     
1 54230U 22148A   23193.07202360 -.00000081  00000+0  00000+0 0  9997
2 54230   0.0163  41.4419 0005199 196.4505 241.0107  1.00271439  2625
GALAXY 31 (G-31)        
1 54243U 22153A   23193.62557289  .00000013  00000+0  00000+0 0  9995
2 54243   0.0205  31.4039 0002041 231.7961 131.2558  1.00269895  2426
GALAXY 32 (G-32)        
1 54244U 22153B   23192.46362100 -.00000175  00000+0  00000+0 0  9993
2 54244   0.0098  25.4345 0001629  28.0272 311.5335  1.00271190  2420
EUTELSAT 10B            
1 54259U 22157A   23193.73050766  .00000119  00000+0  00000+0 0  9993
2 54259   0.0479  99.2708 0000424 158.3731 304.1373  1.00787608  2314
GALAXY 35 (G-35)        
1 54741U 22170A   23193.41402050 -.00000162  00000+0  00000+0 0  9995
2 54741   0.0263  44.3238 0000537 165.6170 136.0497  1.00270068  2162
GALAXY 36 (G-36)        
1 54742U 22170B   23193.37341205 -.00000185  00000+0  00000+0 0  9990
2 54742   0.0244  43.7674 0003459  58.6264 233.0351  1.00271526  2178
METEOSAT-12 (MTG-I1)    
1 54743U 22170C   23193.14493875 -.00000030  00000+0  00000+0 0  9996
2 54743   0.6664 310.7010 0002515 140.5110 247.3871  1.00273305  2234
SHIJIAN-23 (SJ-23)      
1 55131U 23002A   23194.75530001 -.00000363  00000+0  00000+0 0  9993
2 55131   0.9552  92.4150 0000194 266.0760 319.6886  1.00445705  1963
USA 340                 
1 55138U 22144E   23186.76041667  .00000040  00000+0  00000+0 0  9994
2 55138   3.1963  66.2703 0009403 140.7553 232.6148  0.99838807   997
USA 342                 
1 55263U 23008A   23192.46907885  .00000018  00000+0  00000+0 0  9995
2 55263   0.0342 127.5505 0000919  89.9411 118.5610  1.00267580  1774
LDPE-3A                 
1 55264U 23008B   23193.54611689 -.00000146  00000+0  00000+0 0  9993
2 55264   0.3680  89.0070 0001338  84.3976 118.4245  0.99882140  1060
ELEKTRO-L 4             
1 55506U 23016A   23191.73855151 -.00000061  00000+0  00000+0 0  9990
2 55506   0.1858 302.1496 0000846  34.0557  23.7778  1.00272122  1565
CHINASAT 26 (ZX 26)     
1 55686U 23023A   23193.80586279 -.00000354  00000+0  00000+0 0  9994
2 55686   0.0668  85.9898 0003706 355.5971 264.0264  1.00266265  1508
LUCH-5X (OLYMP-K 2)     
1 55841U 23031A   23194.73354340  .00000061  00000+0  00000+0 0  9995
2 55841   0.0114  82.8035 0001349  52.6926  68.9031  1.00268734  1227
GAOFEN 13-02            
1 55912U 23036A   23193.53468238 -.00000228  00000+0  00000+0 0  9994
2 55912   2.7888 301.2488 0002356 279.7181  48.3632  1.00273877  1354
SES-18                  
1 55970U 23038A   23194.57422962 -.00000101  00000+0  00000+0 0  9999
2 55970   0.0342 243.3092 0000798 297.5933 213.8916  1.00271928  1395
SES-19                  
1 55971U 23038B   23193.58489587  .00000088  00000+0  00000+0 0  9999
2 55971   0.0147  19.1620 0001514  94.1302 252.5611  1.00271610  1359
INTELSAT 40E (IS-40E)   
1 56174U 23052A   23193.41369111 -.00000177  00000+0  00000+0 0  9993
2 56174   0.0171  79.4794 0003762  33.5372 234.9595  1.00288846  1099
VIASAT-3                
1 56370U 23060A   23193.13442067 -.00000186  00000+0  00000+0 0  9991
2 56370   0.0963 111.4884 0000763 256.8713 240.9073  1.00270435   700
ARCTURUS                
1 56371U 23060B   23193.61269084  .00000127  00000+0  00000+0 0  9995
2 56371   0.0144  21.1378 0001142 152.8071 173.8660  1.00266903   724
BEIDOU-3 G4             
1 56564U 23066A   23192.67688133 -.00000109  00000+0  00000+0 0  9991
2 56564   2.9772 289.0897 0007132 195.9698 207.9353  1.00271004   664
IRNSS-1J (NVS-01)       
1 56759U 23076A   23194.76375387 -.00000328  00000+0  00000+0 0  9997
2 56759   4.8712 273.0591 0004073 337.3365  85.5822  1.00272291   483
